LANDSAT 9               
1 49260U 21088A   23286.75505512  .00001076  00000+0  24895-3 0  9995
2 49260  98.2189 355.1638 0001136  86.8505 273.2824 14.57100448108656
